start=new Date('2023-06-21T00:00:00.000Z').valueOf();
sats=[{"MEAN_MOTION":"15.08834010","MEAN_MOTION_DOT":"0.00000346","TIME_SYSTEM":"UTC","OBJECT_TYPE":"PAYLOAD","BSTAR":"0.00003984300000","MEAN_ANOMALY":"276.3084","EPOCH":"2023-06-20T10:28:37.076736","ARG_OF_PERICENTER":"83.8046","LAUNCH_DATE":"2022-01-19","MEAN_MOTION_DDOT":"0.0000000000000","FILE":"3938135","RA_OF_ASC_NODE":"68.0045","TLE_LINE1":"1 51114U 22005L   23171.43654024  .00000346  00000-0  39843-4 0  9997","TLE_LINE2":"2 51114  53.2179  68.0045 0001206  83.8046 276.3084 15.08834010 78939","COUNTRY_CODE":"US","PERIOD":"95.438","SITE":"AFETR","INCLINATION":"53.2179","DECAY_DATE":null,"CLASSIFICATION_TYPE":"U","ECCENTRICITY":"0.00012060","ELEMENT_SET_NO":"999","EPHEMERIS_TYPE":"0","OBJECT_ID":"2022-005L","CENTER_NAME":"EARTH","GP_ID":"234360418","NORAD_CAT_ID":"51114","SEMIMAJOR_AXIS":"6917.899","PERIAPSIS":"538.929","APOAPSIS":"540.598","RCS_SIZE":"LARGE","MEAN_ELEMENT_THEORY":"SGP4","OBJECT_NAME":"STARLINK-3375","REF_FRAME":"TEME","REV_AT_EPOCH":"7893"},{"ECCENTRICITY":"0.00012210","DECAY_DATE":null,"CLASSIFICATION_TYPE":"U","SITE":"AFETR","INCLINATION":"53.2174","OBJECT_NAME":"STARLINK-3397","REF_FRAME":"TEME","REV_AT_EPOCH":"7899","RCS_SIZE":"LARGE","MEAN_ELEMENT_THEORY":"SGP4","NORAD_CAT_ID":"51115","GP_ID":"234394169","SEMIMAJOR_AXIS":"6917.874","PERIAPSIS":"538.894","APOAPSIS":"540.583","EPHEMERIS_TYPE":"0","ELEMENT_SET_NO":"999","OBJECT_ID":"2022-005M","CENTER_NAME":"EARTH","ARG_OF_PERICENTER":"96.2346","EPOCH":"2023-06-20T20:59:12.787584","LAUNCH_DATE":"2022-01-19","MEAN_ANOMALY":"263.8785","MEAN_MOTION_DOT":"0.00000033","TIME_SYSTEM":"UTC","BSTAR":"0.00002014500000","OBJECT_TYPE":"PAYLOAD","MEAN_MOTION":"15.08842162","TLE_LINE2":"2 51115  53.2174  66.0405 0001221  96.2346 263.8785 15.08842162 78993","COUNTRY_CODE":"US","PERIOD":"95.437","FILE":"3938544","TLE_LINE1":"1 51115U 22005M   23171.87445356  .00000033  00000-0  20145-4 0  9990","RA_OF_ASC_NODE":"66.0405","MEAN_MOTION_DDOT":"0.0000000000000"},{"MEAN_ELEMENT_THEORY":"SGP4","RCS_SIZE":"LARGE","REV_AT_EPOCH":"7899","REF_FRAME":"TEME","OBJECT_NAME":"STARLINK-3243","OBJECT_ID":"2022-005N","CENTER_NAME":"EARTH","EPHEMERIS_TYPE":"0","ELEMENT_SET_NO":"999","PERIAPSIS":"538.895","APOAPSIS":"540.576","NORAD_CAT_ID":"51116","GP_ID":"234394420","SEMIMAJOR_AXIS":"6917.871","DECAY_DATE":null,"CLASSIFICATION_TYPE":"U","ECCENTRICITY":"0.00012150","INCLINATION":"53.2179","SITE":"AFETR","FILE":"3938544","RA_OF_ASC_NODE":"65.9609","TLE_LINE1":"1 51116U 22005N   23171.88644719  .00001258  00000-0  97100-4 0  9991","COUNTRY_CODE":"US","PERIOD":"95.437","TLE_LINE2":"2 51116  53.2179  65.9609 0001215  92.6332 267.4799 15.08843153 78997","MEAN_MOTION_DDOT":"0.0000000000000","MEAN_ANOMALY":"267.4799","LAUNCH_DATE":"2022-01-19","ARG_OF_PERICENTER":"92.6332","EPOCH":"2023-06-20T21:16:29.037216","MEAN_MOTION":"15.08843153","BSTAR":"0.00009710000000","OBJECT_TYPE":"PAYLOAD","TIME_SYSTEM":"UTC","MEAN_MOTION_DOT":"0.00001258"},{"TLE_LINE1":"1 51117U 22005P   23171.85700484  .00000312  00000-0  37716-4 0  9998","RA_OF_ASC_NODE":"66.0881","FILE":"3938544","TLE_LINE2":"2 51117  53.2187  66.0881 0001324 104.8183 255.2955 15.08845417 78996","PERIOD":"95.437","COUNTRY_CODE":"US","MEAN_MOTION_DDOT":"0.0000000000000","MEAN_ANOMALY":"255.2955","EPOCH":"2023-06-20T20:34:05.218176","ARG_OF_PERICENTER":"104.8183","LAUNCH_DATE":"2022-01-19","MEAN_MOTION":"15.08845417","TIME_SYSTEM":"UTC","MEAN_MOTION_DOT":"0.00000312","OBJECT_TYPE":"PAYLOAD","BSTAR":"0.00003771600000","RCS_SIZE":"LARGE","MEAN_ELEMENT_THEORY":"SGP4","OBJECT_NAME":"STARLINK-3391","REF_FRAME":"TEME","REV_AT_EPOCH":"7899","ELEMENT_SET_NO":"999","EPHEMERIS_TYPE":"0","CENTER_NAME":"EARTH","OBJECT_ID":"2022-005P","SEMIMAJOR_AXIS":"6917.864","GP_ID":"234394668","NORAD_CAT_ID":"51117","APOAPSIS":"540.645","PERIAPSIS":"538.813","CLASSIFICATION_TYPE":"U","DECAY_DATE":null,"ECCENTRICITY":"0.00013240","SITE":"AFETR","INCLINATION":"53.2187"},{"TLE_LINE2":"2 51118  53.2178  66.0284 0001451  91.2391 268.8767 15.08784319 78999","PERIOD":"95.441","COUNTRY_CODE":"US","TLE_LINE1":"1 51118U 22005Q   23171.87814286  .00010988  00000-0  70848-3 0  9999","RA_OF_ASC_NODE":"66.0284","FILE":"3938544","MEAN_MOTION_DDOT":"0.0000000000000","ARG_OF_PERICENTER":"91.2391","EPOCH":"2023-06-20T21:04:31.543104","LAUNCH_DATE":"2022-01-19","MEAN_ANOMALY":"268.8767","TIME_SYSTEM":"UTC","MEAN_MOTION_DOT":"0.00010988","BSTAR":"0.00070848000000","OBJECT_TYPE":"PAYLOAD","MEAN_MOTION":"15.08784319","OBJECT_NAME":"STARLINK-3394","REF_FRAME":"TEME","REV_AT_EPOCH":"7899","RCS_SIZE":"LARGE","MEAN_ELEMENT_THEORY":"SGP4","GP_ID":"234393919","SEMIMAJOR_AXIS":"6918.051","NORAD_CAT_ID":"51118","APOAPSIS":"540.919","PERIAPSIS":"538.912","EPHEMERIS_TYPE":"0","ELEMENT_SET_NO":"999","CENTER_NAME":"EARTH","OBJECT_ID":"2022-005Q","ECCENTRICITY":"0.00014510","CLASSIFICATION_TYPE":"U","DECAY_DATE":null,"SITE":"AFETR","INCLINATION":"53.2178"},{"INCLINATION":"53.2180","SITE":"AFETR","ECCENTRICITY":"0.00011760","CLASSIFICATION_TYPE":"U","DECAY_DATE":null,"APOAPSIS":"540.534","PERIAPSIS":"538.907","GP_ID":"234393670","SEMIMAJOR_AXIS":"6917.855","NORAD_CAT_ID":"51119","CENTER_NAME":"EARTH","OBJECT_ID":"2022-005R","EPHEMERIS_TYPE":"0","ELEMENT_SET_NO":"999","REV_AT_EPOCH":"7899","REF_FRAME":"TEME","OBJECT_NAME":"STARLINK-3390","MEAN_ELEMENT_THEORY":"SGP4","RCS_SIZE":"LARGE","BSTAR":"0.00003121300000","OBJECT_TYPE":"PAYLOAD","MEAN_MOTION_DOT":"0.00000209","TIME_SYSTEM":"UTC","MEAN_MOTION":"15.08848254","LAUNCH_DATE":"2022-01-19","ARG_OF_PERICENTER":"82.7757","EPOCH":"2023-06-20T20:32:42.666432","MEAN_ANOMALY":"277.3369","MEAN_MOTION_DDOT":"0.0000000000000","PERIOD":"95.437","COUNTRY_CODE":"US","TLE_LINE2":"2 51119  53.2180  66.1229 0001176  82.7757 277.3369 15.08848254 78990","RA_OF_ASC_NODE":"66.1229","TLE_LINE1":"1 51119U 22005R   23171.85604938  .00000209  00000-0  31213-4 0  9998","FILE":"3938544"},{"INCLINATION":"53.2169","SITE":"AFETR","DECAY_DATE":null,"CLASSIFICATION_TYPE":"U","ECCENTRICITY":"0.00012220","OBJECT_ID":"2022-005S","CENTER_NAME":"EARTH","ELEMENT_SET_NO":"999","EPHEMERIS_TYPE":"0","PERIAPSIS":"538.890","APOAPSIS":"540.580","NORAD_CAT_ID":"51120","GP_ID":"234394920","SEMIMAJOR_AXIS":"6917.870","MEAN_ELEMENT_THEORY":"SGP4","RCS_SIZE":"LARGE","REV_AT_EPOCH":"7899","REF_FRAME":"TEME","OBJECT_NAME":"STARLINK-3398","MEAN_MOTION":"15.08843360","BSTAR":"0.00002472900000","OBJECT_TYPE":"PAYLOAD","MEAN_MOTION_DOT":"0.00000106","TIME_SYSTEM":"UTC","MEAN_ANOMALY":"264.0403","LAUNCH_DATE":"2022-01-19","ARG_OF_PERICENTER":"96.0729","EPOCH":"2023-06-20T20:22:06.822048","MEAN_MOTION_DDOT":"0.0000000000000","FILE":"3938544","RA_OF_ASC_NODE":"66.1544","TLE_LINE1":"1 51120U 22005S   23171.84869007  .00000106  00000-0  24729-4 0  9999","COUNTRY_CODE":"US","PERIOD":"95.437","TLE_LINE2":"2 51120  53.2169  66.1544 0001222  96.0729 264.0403 15.08843360 78993"},{"MEAN_ELEMENT_THEORY":"SGP4","RCS_SIZE":"LARGE","REV_AT_EPOCH":"7899","REF_FRAME":"TEME","OBJECT_NAME":"STARLINK-3399","OBJECT_ID":"2022-005T","CENTER_NAME":"EARTH","EPHEMERIS_TYPE":"0","ELEMENT_SET_NO":"999","PERIAPSIS":"538.939","APOAPSIS":"540.563","GP_ID":"234395168","SEMIMAJOR_AXIS":"6917.886","NORAD_CAT_ID":"51121","DECAY_DATE":null,"CLASSIFICATION_TYPE":"U","ECCENTRICITY":"0.00011740","INCLINATION":"53.2177","SITE":"AFETR","FILE":"3938544","TLE_LINE1":"1 51121U 22005T   23171.86437082  .00000041  00000-0  20633-4 0  9994","RA_OF_ASC_NODE":"66.0951","COUNTRY_CODE":"US","PERIOD":"95.438","TLE_LINE2":"2 51121  53.2177  66.0951 0001174  96.2681 263.8445 15.08838187 78993","MEAN_MOTION_DDOT":"0.0000000000000","MEAN_ANOMALY":"263.8445","LAUNCH_DATE":"2022-01-19","EPOCH":"2023-06-20T20:44:41.638848","ARG_OF_PERICENTER":"96.2681","MEAN_MOTION":"15.08838187","OBJECT_TYPE":"PAYLOAD","BSTAR":"0.00002063300000","TIME_SYSTEM":"UTC","MEAN_MOTION_DOT":"0.00000041"},{"NORAD_CAT_ID":"51122","GP_ID":"234393420","SEMIMAJOR_AXIS":"6917.871","APOAPSIS":"540.562","PERIAPSIS":"538.909","EPHEMERIS_TYPE":"0","ELEMENT_SET_NO":"999","CENTER_NAME":"EARTH","OBJECT_ID":"2022-005U","REF_FRAME":"TEME","OBJECT_NAME":"STARLINK-3373","REV_AT_EPOCH":"7899","RCS_SIZE":"LARGE","MEAN_ELEMENT_THEORY":"SGP4","SITE":"AFETR","INCLINATION":"53.2188","ECCENTRICITY":"0.00011950","CLASSIFICATION_TYPE":"U","DECAY_DATE":null,"MEAN_MOTION_DDOT":"0.0000000000000","TLE_LINE2":"2 51122  53.2188  66.1440 0001195  99.4082 260.7045 15.08843181 78995","PERIOD":"95.437","COUNTRY_CODE":"US","RA_OF_ASC_NODE":"66.1440","TLE_LINE1":"1 51122U 22005U   23171.85333143 -.00000040  00000-0  15587-4 0  9999","FILE":"3938544","MEAN_MOTION_DOT":"-0.00000040","TIME_SYSTEM":"UTC","OBJECT_TYPE":"PAYLOAD","BSTAR":"0.00001558700000","MEAN_MOTION":"15.08843181","ARG_OF_PERICENTER":"99.4082","EPOCH":"2023-06-20T20:28:47.835552","LAUNCH_DATE":"2022-01-19","MEAN_ANOMALY":"260.7045"},{"FILE":"3938544","RA_OF_ASC_NODE":"66.1719","TLE_LINE1":"1 51123U 22005V   23171.84501100  .00000591  00000-0  55212-4 0  9998","TLE_LINE2":"2 51123  53.2177  66.1719 0001332  84.8523 275.2621 15.08846932 78992","COUNTRY_CODE":"US","PERIOD":"95.437","MEAN_MOTION_DDOT":"0.0000000000000","MEAN_ANOMALY":"275.2621","ARG_OF_PERICENTER":"84.8523","EPOCH":"2023-06-20T20:16:48.950400","LAUNCH_DATE":"2022-01-19","MEAN_MOTION":"15.08846932","TIME_SYSTEM":"UTC","MEAN_MOTION_DOT":"0.00000591","BSTAR":"0.00005521200000","OBJECT_TYPE":"PAYLOAD","RCS_SIZE":"LARGE","MEAN_ELEMENT_THEORY":"SGP4","OBJECT_NAME":"STARLINK-3392","REF_FRAME":"TEME","REV_AT_EPOCH":"7899","ELEMENT_SET_NO":"999","EPHEMERIS_TYPE":"0","OBJECT_ID":"2022-005V","CENTER_NAME":"EARTH","SEMIMAJOR_AXIS":"6917.859","GP_ID":"234394170","NORAD_CAT_ID":"51123","PERIAPSIS":"538.803","APOAPSIS":"540.646","DECAY_DATE":null,"CLASSIFICATION_TYPE":"U","ECCENTRICITY":"0.00013320","SITE":"AFETR","INCLINATION":"53.2177"}];
